business_name,latitude,longitude,formatted_address,location_type,location_id
happi notes,30.7849616,-88.3017969,"9911 Blackwell Nursery Rd, Semmes, AL 36575, USA",point_of_interest,ChIJRx2bQXevm4gRh5Nj0c3UvQI
1862 Needham Rd,31.98905959999999,-88.3213799,"1862 Needham Rd, Needham, AL 36915, USA",premise,ChIJke2qS_znhIgRxHYhXmqKnNE
2800 Zelda Rd #100,32.3597857,-86.26531120000001,"2800 Zelda Rd #100, Montgomery, AL 36106, USA",subpremise,ChIJLwHi59qBjogRyE32revdzs0
1908 Cogswell Ave,33.5861571,-86.28532400000002,"1908 Cogswell Ave, Pell City, AL 35125, USA",premise,ChIJqc7iuxd9iYgRKVa7odPVmKM
1000 St Clair Rd,33.7450312,-86.385676,"1000 St Clair Rd, Springville, AL 35146, USA",premise,ChIJI6Tk9IKCiYgRdq07cAW7q4E
12969 AL-227,34.3512638,-86.00091619999999,"12969 AL-227, Geraldine, AL 35974, USA",premise,ChIJgU71jQgMiogR2cZOECG5Lr4
130 Selfridge St,32.3754272,-86.34342269999999,"130 Selfridge St, Montgomery, AL 36112, USA",street_address,EisxMzAgU2VsZnJpZGdlIFN0LCBNb250Z29tZXJ5LCBBTCAzNjExMiwgVVNBIjESLwoUChIJE05ymLaGjogRcIgxI-d6LhMQggEqFAoSCSlGeoa5ho6IEYDOE3A50zJi
1389 W Main St #2,31.2264191,-85.4104474,"1389 W Main St #2, Dothan, AL 36301, USA",subpremise,ChIJUdMBIvaSkogR1AlDU1x8eqE
7765 Airport Blvd,30.6831274,-88.2237869,"7765 Airport Blvd, Mobile, AL 36608, USA",street_address,ChIJj90qNNazm4gRAvJwcvGtThk
1401 Hillyer Robinson Industrial Pkwy,33.629282,-85.8087206,"1401 Hillyer Robinson Industrial Pkwy, Anniston, AL 36207, USA",premise,ChIJ-7Egvnixi4gRNk_SatI5o6I
2880 Dauphin St,30.6896462,-88.1109262,"2880 Dauphin St, Mobile, AL 36606, USA",street_address,ChIJd2w8H35NmogR23Y92bZ4RQQ
Old Military Road,30.5397056,-88.1614851,"Old Military Rd, Mobile, AL 36582, USA",route,ChIJjUKjArZKmogRWnvHVOlrO9A
540 Hughes Rd Ste 10A,34.71084939999999,-86.7427369,"540 Hughes Rd Ste 10A, Madison, AL 35758, USA",subpremise,ChIJAQAAc_VlYogRqCL1iZYghHk
333 Franklin St SE,34.7295064,-86.5835847,"333 Franklin St SE, Huntsville, AL 35801, USA",premise,ChIJCQsdTlRrYogRFIbQnt3dGbY
2090 Columbiana Rd # 2000,33.4358346,-86.8113985,"2090 Columbiana Rd # 2000, Vestavia Hills, AL 35216, USA",subpremise,ChIJZSE7DtoYiYgRx_mjGp8-xBA
181 Hughes Rd #1b,34.7016938,-86.74142619999999,"181 Hughes Rd #1b, Madison, AL 35758, USA",subpremise,EikxODEgSHVnaGVzIFJkICMxYiwgTWFkaXNvbiwgQUwgMzU3NTgsIFVTQSIeGhwKFgoUChIJc0WFBmJvYogR1lAVk4uj5W8SAjFi
2075 Max Luther Dr NW,34.7578298,-86.598492,"2075 Max Luther Dr NW, Huntsville, AL 35810, USA",premise,ChIJE8tPGz1rYogRngSaZtitP9o
2600 Point Mallard Dr SE,34.58072319999999,-86.93610389999999,"2600 Point Mallard Dr SE, Decatur, AL 35601, USA",street_address,ChIJjfXLdCKHYogRToQ2aeq3wL4
300 22nd St S,33.5109005,-86.7999853,"300 22nd St S, Birmingham, AL 35233, USA",premise,ChIJ1Qo3o78biYgRpfzIopcDyuI
250 Chateau Dr SW # 120,34.69372879999999,-86.5734501,"250 Chateau Dr SW # 120, Huntsville, AL 35801, USA",subpremise,ChIJDQqUzzETYogR50oAO9N5cPs
1311 2nd Ave SW,34.1634475,-86.83764269999999,"1311 2nd Ave SW, Cullman, AL 35055, USA",premise,ChIJc8EqTsnLiYgRutGH5HHmR5E
2502 Schillinger Rd S,30.63842859999999,-88.22656429999999,"2502 Schillinger Rd S, Mobile, AL 36695, USA",premise,ChIJTZXbn7izm4gR6nCx5FHF1LE
500 Grand Ave SW,34.4383768,-85.7267531,"500 Grand Ave SW, Fort Payne, AL 35967, USA",premise,ChIJee4Jv9TXYYgRfAbBO3j7OY4
12060 County Line Rd,34.7295183,-86.7880151,"12060 County Line Rd, Madison, AL 35756, USA",premise,ChIJ0WtZmClkYogR8S69us_MMMM
418 S 5th St,34.0072865,-86.0068115,"418 S 5th St, Gadsden, AL 35901, USA",premise,ChIJaaX10q4-iogRwjbtnGxmWxI
3038 Ross Clark Cir,31.2237497,-85.4306333,"3038 Ross Clark Cir, Dothan, AL 36301, USA",premise,ChIJC1P77oaSkogRpxHb1YUO1MA
930 Franklin St SE,34.7207991,-86.57844879999999,"930 Franklin St SE, Huntsville, AL 35801, USA",premise,ChIJE4HxglQTYogR3exWiRJ4tb8
8 Perimeter Park S,33.4374279,-86.72608590000002,"8 Perimeter Park S, Birmingham, AL 35243, USA",premise,ChIJZ6pHfZ4XiYgRuDjRDulb8bA
1302 State St,32.6994368,-87.59383290000001,"1302 State St, Greensboro, AL 36744, USA",premise,ChIJndOMCsz0hYgRu8iyAfmnt5w
2620 Clinton Ave W,34.7209019,-86.607953,"2620 Clinton Ave W, Huntsville, AL 35805, USA",premise,ChIJGTT_gptsYogR1GTVPW1tLCU
2506 AL-134,31.35731,-85.2896485,"2506 AL-134, Headland, AL 36345, USA",premise,ChIJ1ZakuvWXkogRRRu2MzJFJfU
1137 10th Pl S,33.4934205,-86.8116829,"1137 10th Pl S, Birmingham, AL 35205, USA",premise,ChIJk3kHruQbiYgRB_FEpPQoCu0
911 N Broadway Ave,33.18020449999999,-86.2510187,"911 N Broadway Ave, Sylacauga, AL 35150, USA",premise,ChIJATzo-F39i4gRWjNiNlRBZBM
Main Street,34.1590615,-85.70691049999999,"Main St, Centre, AL 35960, USA",route,ChIJ1xUeYphmiogRbdWmmPD4lnU
2601 S McKenzie St #442,30.3741568,-87.6809382,"2601 S McKenzie St #442, Foley, AL 36535, USA",subpremise,ChIJIdsJMDQOmogRH35Qj_rLbBw
13817 Shell Belt Rd,30.403142,-88.2492604,"13817 Shell Belt Rd, Bayou La Batre, AL 36509, USA",street_address,EjIxMzgxNyBTaGVsbCBCZWx0IFJkLCBCYXlvdSBMYSBCYXRyZSwgQUwgMzY1MDksIFVTQSIxEi8KFAoSCWPt86WhzpuIEUf3al7dipoSEPlrKhQKEgkNfyjCms6biBFP8s8T2vS9kQ
36561,30.2864876,-87.5692461,"Orange Beach, AL 36561, USA",postal_code,ChIJxw2YESyokIgRlYV-N3RLg2U
11007 US-231 431 n,34.82978509999999,-86.5722395,"11007 US-231 431 n, Huntsville, AL 35810, USA",subpremise,Ei0xMTAwNyBVUy0yMzEgNDMxIG4sIEh1bnRzdmlsbGUsIEFMIDM1ODEwLCBVU0EiIRofChYKFAoSCWfyRprxP2KIEVHLcCLlytASEgU0MzEgbg
445 Dexter Ave Suite 1010,32.3783877,-86.3029663,"445 Dexter Ave Suite 1010, Montgomery, AL 36104, USA",subpremise,ChIJ63Oo66GBjogRyN6tP9ZCmIM
1800 McFarland Blvd E,33.1946503,-87.52843949999999,"1800 McFarland Blvd E, Tuscaloosa, AL 35404, USA",premise,ChIJF_oGIjKoiIgR23S-hmH_yEQ
1720 Cherokee Ave SW,34.156101,-86.8373642,"1720 Cherokee Ave SW, Cullman, AL 35055, USA",premise,ChIJ12Y1oTTKiYgRfexzNIkajIo
951 Balch Rd,34.7433791,-86.76742,"951 Balch Rd, Madison, AL 35758, USA",premise,ChIJ0QD-EW5mYogRIV8AJpe5B8Q
820 Palmer Rd,34.6919429,-86.7860566,"820 Palmer Rd, Madison, AL 35758, USA",premise,ChIJwQ9bFlRkYogRCzhtN6HIyls
10304 US-31,30.6763404,-87.8299404,"10304 US-31, Spanish Fort, AL 36527, USA",street_address,EigxMDMwNCBVUy0zMSwgU3BhbmlzaCBGb3J0LCBBTCAzNjUyNywgVVNBIjESLwoUChIJEzamsm5omogR3OGpkX2ChREQwFAqFAoSCcFkSjBMZmSIEVViLZ8bXgW5
Maplesville,32.7884842,-86.8717757,"Maplesville, AL, USA",locality,ChIJ9ThT1MXYjogR8E3f34swH2k
1634 A Montgomery Hwy,33.3961963,-86.8065518,"1634 A Montgomery Hwy, Hoover, AL 35216, USA",subpremise,ChIJI4odGQoiiYgRP2LY4MJSHRQ
4821 Schillinger Rd S,30.5922206,-88.22471410000001,"4821 Schillinger Rd S, Mobile, AL 36619, USA",premise,ChIJbRjv8my0m4gRubaYOwLtr4s
4000 University Dr NW,34.73551339999999,-86.62791759999999,"4000 University Dr NW, Huntsville, AL 35816, USA",premise,ChIJjRDMVoRrYogRWQuBCZQY1UY
401 Fonville St,32.4243534,-85.6959177,"401 Fonville St, Tuskegee, AL 36083, USA",premise,ChIJcVSO9dlQjIgRJ89QDZAMWs8
108 Wind River Rd N,31.1074554,-87.47691720000002,"108 Wind River Rd N, Atmore, AL 36502, USA",premise,ChIJ55TWO9x2kIgRKtqEwIYMZxw
54 N Royal St #56,30.6935709,-88.0410847,"54 N Royal St #56, Mobile, AL 36602, USA",subpremise,Eig1NCBOIFJveWFsIFN0ICM1NiwgTW9iaWxlLCBBTCAzNjYwMiwgVVNBIh4aHAoWChQKEgkZY2TY2U-aiBGC8ptYQdOKdhICNTY
1529 Greenbrier Dear Rd,33.6297419,-85.8044815,"1529 Greenbrier Dear Rd, Anniston, AL 36207, USA",premise,ChIJD3qRz4Oxi4gRvKZKOKrA7ic
4520 Pinson Blvd,33.689917,-86.683059,"4520 Pinson Blvd, Pinson, AL 35126, USA",street_address,ChIJoX8GlxQJiYgR-5RI-cycmeY
9730 A Alabama Hwy 69 S,33.1184988,-87.55293130000001,"9730 A Alabama Hwy 69 S, Tuscaloosa, AL 35405, USA",subpremise,ChIJUyGTvsMBhogRVozg3tgeCr8
708 S Three Notch St,31.7967574,-85.97551,"708 S Three Notch St, Troy, AL 36081, USA",premise,ChIJzYGvblTsjYgRLnD369-j7Qg
3219 Point Mallard Pkwy SE,34.53729,-86.9125651,"3219 Point Mallard Pkwy SE, Decatur, AL 35603, USA",premise,ChIJxSLKS72AYogRceMg78r9bFk
334 E Washington Dr,34.7397311,-87.6215689,"334 E Washington Dr, Muscle Shoals, AL 35661, USA",premise,ChIJC0M_KKZOfYgRJ3KQD6TsVqQ
1505 E Park Ave,31.3069337,-85.82222589999999,"1505 E Park Ave, Enterprise, AL 36330, USA",premise,ChIJSezQMcJukogRbRo7WRJapZ0
501 Stimrad Rd,30.7262548,-88.0609328,"501 Stimrad Rd, Mobile, AL 36610, USA",premise,ChIJJ410_7lRmogRK-Ces1tGBmQ
1031 Brocks Gap Pkwy Suite 265,33.34580260000001,-86.849661,"1031 Brocks Gap Pkwy Suite 265, Birmingham, AL 35244, USA",subpremise,ChIJoft9Ag8hiYgRw0pRZZioJ2w
1350 S McKenzie St,30.3913752,-87.6837601,"1350 S McKenzie St, Foley, AL 36535, USA",premise,ChIJly417D0OmogRUEeiIE-t6hQ
2901 20th Ave,32.8450552,-85.1826124,"2901 20th Ave, Valley, AL 36854, USA",premise,ChIJp96iJISkjIgR-2s-6VKejEY
2075 Exchange St,32.3161652,-86.2212167,"2075 Exchange St, Montgomery, AL 36116, USA",premise,ChIJ05eE_NsqjIgRUZb201RY2Gg
3502 B,34.6956473,-86.584199,"3502 B, 3502 Memorial Pkwy SW, Huntsville, AL 35801, USA",premise,ChIJL5oHts1sYogROQw51N23oII
4570 Hermitage Rd,30.5958254,-88.1717315,"4570 Hermitage Rd, Mobile, AL 36619, USA",premise,ChIJVYjuiq20m4gRUzK7ST7T024
5250 Medford Dr #102,33.3561949,-86.85488269999999,"5250 Medford Dr #102, Hoover, AL 35244, USA",subpremise,ChIJ7Ws6rKkhiYgRb2z_JH9wJNY
2104 Rainbow Dr,33.9734775,-86.0165021,"2104 Rainbow Dr, Gadsden, AL 35901, USA",premise,ChIJNyfHl947iogRtNhjYq0uJIo
415 37th St N,33.5281614,-86.7829278,"415 37th St N, Birmingham, AL 35222, USA",street_address,ChIJw11uH6sbiYgR2I0nTm2PTUg
4900 AL-68,34.2175277,-85.60690869999999,"4900 AL-68, Cedar Bluff, AL 35959, USA",street_address,EiY0OTAwIEFMLTY4LCBDZWRhciBCbHVmZiwgQUwgMzU5NTksIFVTQSIxEi8KFAoSCcc5MmSDYoqIEQflqXzP5PVsEKQmKhQKEgmXNRdUM26KiBF4xOkgOE8Ngw
711 Woodward Ave,34.7537291,-87.6673091,"711 Woodward Ave, Muscle Shoals, AL 35661, USA",subpremise,ChIJzflrkNJIfYgRA1NwiV3eygw
2754 Dauphin St,30.6885565,-88.10646460000001,"2754 Dauphin St, Mobile, AL 36606, USA",premise,ChIJ1S-DRPJNmogRj2Py1qqiR2Q
1 E Interstate 65 Service Rd S,30.6877211,-88.1238893,"1 E Interstate 65 Service Rd S, Mobile, AL 36606, USA",street_address,ChIJRS5-RpNNmogRArK7Au1KruI
1607 E Commerce St,31.8342955,-86.59934349999999,"1607 E Commerce St, Greenville, AL 36037, USA",premise,ChIJj5kqtuo9jogRBooThzdn6gk
1001 Ryland Pike Suite i,34.7666792,-86.4540325,"1001 Ryland Pike Suite i, Huntsville, AL 35811, USA",subpremise,ChIJ__8PVQcXYogRr6co8dLy7BA
4439 Pinson Blvd,33.6882513,-86.6820594,"4439 Pinson Blvd, Pinson, AL 35126, USA",premise,ChIJo2Ey2hQJiYgR4d5Zh46_sd4
6006 US-90,30.5389132,-88.183071,"6006 US-90, Theodore, AL 36582, USA",premise,ChIJhdgiUj-1m4gR94Cf6QQQVlY
36331,31.3204544,-85.839922,"Enterprise, AL 36331, USA",postal_code,ChIJkXnskSNskogR8xBq4l-g4no
2206 Woodward Ave,34.7406851,-87.668088,"2206 Woodward Ave, Muscle Shoals, AL 35661, USA",premise,ChIJv7HxqjpPfYgR9KN80GO_kVA
24230 US-98,30.412429,-87.61156419999999,"24230 US-98, Elberta, AL 36530, USA",premise,ChIJE8qESVYJmogRfjN0xOERTek
2057 Valleydale Rd,33.3473276,-86.79014480000001,"2057 Valleydale Rd, Birmingham, AL 35244, USA",premise,ChIJtbwmxa0jiYgRNo88EbNLZ0E
542 Lee Rd 197 #6,32.4926134,-85.1501139,"542 Lee Rd 197 #6, Phenix City, AL 36870, USA",subpremise,Ei01NDIgTGVlIFJkIDE5NyAjNiwgUGhlbml4IENpdHksIEFMIDM2ODcwLCBVU0EiHRobChYKFAoSCddmv_tUxIyIEeB9qW0oeQ6MEgE2
9070 Memorial Pkwy NW #260,34.8054893,-86.57193199999999,"9070 Memorial Pkwy NW #260, Huntsville, AL 35810, USA",subpremise,EjU5MDcwIE1lbW9yaWFsIFBrd3kgTlcgIzI2MCwgSHVudHN2aWxsZSwgQUwgMzU4MTAsIFVTQSI6GjgKMRIvChQKEgnn8ZxRUBViiBGygNnob85TmxDuRioUChIJAU56QMpqYogRr-CLHySdMRsSAzI2MA
1801 Hwy 78 E,33.8451464,-87.2572854,"1801 Hwy 78 E, Jasper, AL 35501, USA",premise,ChIJkz9RTtdgiIgRadiDFG117AQ
1700 AL-21,33.6020869,-85.8349391,"1700 AL-21, Oxford, AL 36203, USA",premise,ChIJiw566SSxi4gRmN5OUCnS4Vo
203 S Hambrick St,34.26741690000001,-86.2120346,"203 S Hambrick St, Albertville, AL 35950, USA",premise,ChIJDX1fH9QciogRtPcWwYH9QJ0
1700 SpringHill Ave,30.6926589,-88.07842,"1700 SpringHill Ave, Mobile, AL 36604, USA",premise,ChIJLcwmhRxOmogRZUKpPW4jR4I
4704 Cahaba River Rd Suite A1,33.43212549999999,-86.737828,"4704 Cahaba River Rd Suite A1, Birmingham, AL 35243, USA",subpremise,ChIJ8Xi3ioYXiYgR8wZLT_8pkNc
Fort Mitchell,32.341536,-85.0215982,"Fort Mitchell, AL 36856, USA",locality,ChIJy7EERwLUjIgRH1skNc5kU-o
125 20th St S,33.5111215,-86.8031292,"125 20th St S, Birmingham, AL 35233, USA",subpremise,ChIJ28yYEpUbiYgRwadDBwOYMLA
820 S University Blvd # 2G,30.6606108,-88.1642102,"820 S University Blvd # 2G, Mobile, AL 36609, USA",subpremise,ChIJp0ioPixNmogR8pNZl50i8AE
8912 Parkway E,33.5817784,-86.7103588,"8912 Parkway E, Birmingham, AL 35206, USA",subpremise,ChIJF0aejdAPiYgRgHU2W5PDK70
801 20th St S,33.5047016,-86.7987217,"801 20th St S, Birmingham, AL 35294, USA",subpremise,ChIJWy7dbcEbiYgRf9mrZfd0jsI
643 US Hwy 72 W,34.788994,-86.97756079999999,"643 US Hwy 72 W, Athens, AL 35611, USA",subpremise,ChIJK4qpf3yLYogRrjoTTRe8--Q
1901 Hwy 31 SW,34.42476930000001,-86.92936879999999,"1901 Hwy 31 SW, Hartselle, AL 35640, USA",premise,ChIJ_yt6mR0riIgR8oI0_D1inZ0
2744 W Magnolia Ave,31.0553644,-85.90946679999999,"2744 W Magnolia Ave, Samson, AL 36477, USA",premise,ChIJq_5W-qFHkogRpBnvbKEXP0o
Bankhead Street,33.9039578,-88.1226253,"Bankhead St, Sulligent, AL 35586, USA",route,ChIJg8TwaA-ph4gRDL4LLf1SVxQ
209 20th St N,33.51584139999999,-86.8063365,"209 20th St N, Birmingham, AL 35203, USA",subpremise,ChIJM1yCupYbiYgRDaCAWP5QsMs
205 University Blvd E,33.2068578,-87.5336176,"205 University Blvd E, Tuscaloosa, AL 35401, USA",premise,ChIJ_12q8yOoiIgRZCyNdTrY2rU
Alabama 147,32.6350857,-85.49207539999999,"AL-147, Auburn, AL 36830, USA",route,Eh1BTC0xNDcsIEF1YnVybiwgQUwgMzY4MzAsIFVTQSIuKiwKFAoSCY-q9ELvjIyIEZd4sSiwPqizEhQKEglhIYxl4PCMiBGKeyW7ni6X0Q
653 Snow St,33.6152335,-85.8253714,"653 Snow St, Oxford, AL 36203, USA",street_address,ChIJPfpPJmuxi4gRn1aJFjtCblc
115 Franklin St NW,34.5060429,-87.7306254,"115 Franklin St NW, Russellville, AL 35653, USA",street_address,Ei8xMTUgRnJhbmtsaW4gU3QgTlcsIFJ1c3NlbGx2aWxsZSwgQUwgMzU2NTMsIFVTQSIwEi4KFAoSCR-niO5mWH2IEY46csZh1HOaEHMqFAoSCfMCCNBmWH2IEX6Na1jAfEYP
14369 Court St,34.4817748,-87.2914168,"14369 Court St, Moulton, AL 35650, USA",subpremise,ChIJb4VbKaagYogRM5sXEKKW1pA
155 Church St,30.688592,-88.0414285,"155 Church St, Mobile, AL 36602, USA",premise,ChIJcRHzgNpPmogRIA4Q78J9BEY
131 Citation Ct,33.4477338,-86.8455343,"131 Citation Ct, Homewood, AL 35209, USA",premise,ChIJvVpmPuEeiYgRxFLWjHcWNyw
300 S Section St,30.5167514,-87.9035658,"300 S Section St, Fairhope, AL 36532, USA",premise,ChIJx45LVoNAmogRIE1pqUjxDU4
445 Providence Main St NW STE 101,34.7541083,-86.6927793,"445 Providence Main St NW STE 101, Huntsville, AL 35806, USA",subpremise,ChIJL089SxhpYogRBBySntlAkFg
4879 AL-94,32.050264,-86.2235714,"4879 AL-94, Ramer, AL 36069, USA",premise,ChIJN9qlf93YjYgRxrXUmg77ns8
1515 12th Ave S,33.4960783,-86.8023583,"1515 12th Ave S, Birmingham, AL 35205, USA",premise,ChIJfemdj-cbiYgR0DPg1sIN6fA
Westchester Drive,34.684409,-86.76652539999999,"Westchester Dr, Madison, AL 35758, USA",route,ChIJM12hKwplYogRf62GDb_gc7E
2415 E South Blvd,32.3292681,-86.25926799999999,"2415 E South Blvd, Montgomery, AL 36116, USA",premise,ChIJ0wDTLCeAjogRuTHLvtST58U
744 29th St S,33.5104763,-86.7864989,"744 29th St S, Birmingham, AL 35233, USA",premise,ChIJ1XE13LUbiYgRSx-SPrrAuB8
204 Bolinger St,34.2758621,-86.2072714,"204 Bolinger St, Albertville, AL 35950, USA",subpremise,ChIJJ0B-oy0DiogR5X-5-I69fuU
495 Old Lock Rd,32.20817,-88.0463812,"495 Old Lock Rd, Pennington, AL 36916, USA",premise,ChIJW9qq1qsFhYgRN_6_UoUpGCo
12891 Main St,30.4128947,-87.5985863,"12891 Main St, Elberta, AL 36530, USA",premise,ChIJry7UCGAJmogRdSZcHoAMEf8
251 N Craft Hwy,30.7654146,-88.0755903,"251 N Craft Hwy, Chickasaw, AL 36611, USA",premise,ChIJHYJr9WlRmogR_qxv2jD6gMI
1529 US Hwy 72 E,34.7920301,-86.99561469999999,"1529 US Hwy 72 E, Athens, AL 35611, USA",premise,ChIJqarhJY6MYogRJRGW-iuY5OI
2721 5th Ave S,33.5127679,-86.7907275,"2721 5th Ave S, Birmingham, AL 35233, USA",premise,ChIJD1yhbLcbiYgROgEfN66kvUc
349 Fairwood Blvd,30.5298446,-87.89828109999999,"349 Fairwood Blvd, Fairhope, AL 36532, USA",premise,ChIJmfBjk4tAmogRKGhRWOGM3LM
3801 Day St,32.3691933,-86.34941889999999,"3801 Day St, Montgomery, AL 36108, USA",premise,ChIJ8yLMsMeGjogROocNQ1paaLI
1912 Ross Clark Cir,31.1915977,-85.3878987,"1912 Ross Clark Cir, Dothan, AL 36301, USA",premise,ChIJSyR2iC-TkogRTzUgJ4azsrY
426 AL-69,34.0507179,-86.8725755,"426 AL-69, Hanceville, AL 35077, USA",premise,ChIJ9c5tjO20iYgRif6dWEKL5RU
658 Government St,30.6877801,-88.0501768,"658 Government St, Mobile, AL 36602, USA",premise,ChIJPw-gxtJPmogRi7XuPpIiZ8E
5850 AL-53,34.8463845,-86.7108255,"5850 AL-53, Harvest, AL 35749, USA",premise,ChIJe7GIBO5CYogRyslrxhMWWyA
600 Lurleen B Wallace S Blvd,33.2082607,-87.57116839999999,"600 Lurleen B Wallace S Blvd, Tuscaloosa, AL 35401, USA",premise,ChIJS-tHZuYChogRsNfKeifMlmo
3215C Joe Treadwell Dr,30.6737119,-88.1212641,"3215C Joe Treadwell Dr, Mobile, AL 36606, USA",subpremise,ChIJ_csX8qJNmogRYx9Byv_WZnk
2710 J T Morton Dr,33.5518261,-86.2699047,"2710 J T Morton Dr, Pell City, AL 35128, USA",street_address,EiwyNzEwIEogVCBNb3J0b24gRHIsIFBlbGwgQ2l0eSwgQUwgMzUxMjgsIFVTQSIxEi8KFAoSCR3N3PGwYomIEfb6Yv9wN7zFEJYVKhQKEgmzBzQ0uWKJiBFm_JlS-RkSxw
301 S Ripley St,32.3750374,-86.29725839999999,"301 S Ripley St, Montgomery, AL 36104, USA",premise,ChIJYxDFinWBjogRpyVerdipVsI
3500 McFarland Blvd,33.2409065,-87.592152,"3500 McFarland Blvd, Northport, AL 35476, USA",premise,ChIJKX9cJswchogRHM8py0ARpu8
806 6th Ave SE,34.5961813,-86.97993319999999,"806 6th Ave SE, Decatur, AL 35601, USA",premise,ChIJqy5Nq4OGYogRWzCBAJBlnbc
518 Dauphin St,30.68967,-88.04859719999999,"518 Dauphin St, Mobile, AL 36602, USA",premise,ChIJv_E2CNNPmogR6gCS4AavI3k
7086 Hwy 72 W,34.7556169,-86.7112776,"7086 Hwy 72 W, Huntsville, AL 35806, USA",premise,ChIJQbvmJuZoYogRUiFW_IhCWVw
42 Manning Pl,33.4075564,-86.63015449999999,"42 Manning Pl, Birmingham, AL 35254, USA",subpremise,ChIJ7bGVb5oViYgR1KnOToSbBKw
214 Haynes St,33.4385663,-86.0803201,"214 Haynes St, Talladega, AL 35160, USA",premise,ChIJnb80YznDi4gRXcwZ86i6fUw
601 Dothan Hwy,31.1037146,-85.6866847,"601 Dothan Hwy, Hartford, AL 36344, USA",premise,ChIJJy94mQFckogRuDQJQQDJXjg
436 Green Springs Hwy,33.4629801,-86.8200683,"436 Green Springs Hwy, Homewood, AL 35209, USA",premise,ChIJr0jvDzUZiYgRMBT2vP0i2vQ
501 Glover St,34.2748543,-86.2036569,"501 Glover St, Albertville, AL 35950, USA",premise,ChIJo5ko-jIDiogROQF9pWJldNU
701 1st St N,33.2515412,-86.8150495,"701 1st St N, Alabaster, AL 35007, USA",street_address,ChIJpTaEedoliYgRtn5XH06NMZ8
707 S George Wallace Dr,31.7844354,-85.95386169999999,"707 S George Wallace Dr, Troy, AL 36081, USA",premise,ChIJbe46GxntjYgR3gvsQdnCcIY
120 Executive Park Ln,32.4263649,-87.0565019,"120 Executive Park Ln, Selma, AL 36701, USA",premise,ChIJR9412fAFj4gRX8PpuZmTtOc
450 Industrial Park,34.5887469,-86.06106539999999,"450 Industrial Park, Scottsboro, AL 35769, USA",premise,ChIJgZF3ewXlYYgRZcMfFAutrpQ
3322 Memorial Pkwy SW #505,34.6971025,-86.5845466,"3322 Memorial Pkwy SW #505, Huntsville, AL 35801, USA",subpremise,ChIJ8fUdPMxsYogRROf6r5Rn7uo
177 W Main St,32.4597651,-86.4754895,"177 W Main St, Prattville, AL 36067, USA",premise,ChIJL7Ux4EOOjogRDppHRSp8mhY
2A,34.7369373,-86.64716589999999,"2A, 4710 University Dr NW, Huntsville, AL 35816, USA",street_address,ChIJb5ahlvFrYogR5-M_38ouyr4
3440 Martin St S #14,33.5389025,-86.2842941,"3440 Martin St S #14, Cropwell, AL 35054, USA",subpremise,Ei0zNDQwIE1hcnRpbiBTdCBTICMxNCwgQ3JvcHdlbGwsIEFMIDM1MDU0LCBVU0EiHhocChYKFAoSCUdRsTLoYomIEaRdHrZeZlOXEgIxNA
2337 University Blvd E,33.2060084,-87.50694969999999,"2337 University Blvd E, Tuscaloosa, AL 35404, USA",premise,ChIJk61TeFyoiIgRW7QQE17Kn8w
118a Saraland Blvd S,30.81888829999999,-88.0706251,"118a Saraland Blvd S, Saraland, AL 36571, USA",street_address,ChIJJaUeU5NWmogRcl_Ms5p_IBM
1000 W Eastdale Mall,32.3852392,-86.206002,"1000 W Eastdale Mall, Montgomery, AL 36117, USA",premise,ChIJGdVSsdArjIgRvq5l6c1ahmA
2721 Cahaba Rd,33.4841147,-86.7735685,"2721 Cahaba Rd, Mountain Brook, AL 35223, USA",premise,ChIJG_l-uocZiYgRYxnK65YPcJw
4407 Old Shell Rd d,30.697091,-88.1431815,"4407 Old Shell Rd d, Mobile, AL 36608, USA",subpremise,Eio0NDA3IE9sZCBTaGVsbCBSZCBkLCBNb2JpbGUsIEFMIDM2NjA4LCBVU0EiHRobChYKFAoSCdVZqzpiTZqIETLIb9njgajaEgFk
117 E Grand Ave,33.9534207,-86.0397302,"117 E Grand Ave, Rainbow City, AL 35906, USA",premise,ChIJV95Y-Ew6iogRhhFDj0SmwBg
1622 Pepperell Pkwy,32.6398055,-85.39553080000002,"1622 Pepperell Pkwy, Opelika, AL 36801, USA",premise,ChIJL2kK9ymTjIgRrJpfA4kawbQ
127 St Joseph Ave,31.1043066,-87.0721102,"127 St Joseph Ave, Brewton, AL 36426, USA",premise,ChIJ3UoE_Y9FkIgRY_xcSsRFIN4
8691 Old Pascagoula Rd,30.5459955,-88.246937,"8691 Old Pascagoula Rd, Theodore, AL 36582, USA",premise,ChIJ0ak5EXa2m4gRcuXNULjoFgQ
3921 Cottage Hill Rd,30.6528162,-88.1392992,"3921 Cottage Hill Rd, Mobile, AL 36609, USA",street_address,ChIJ-yDMVR1NmogR3hVYXtgOwVg
Alabama 17 & Bb Bragg Road,32.39171700000001,-88.202045,"AL-17 & Bb Bragg Rd, Alabama 36925, USA",intersection,EidBTC0xNyAmIEJiIEJyYWdnIFJkLCBBbGFiYW1hIDM2OTI1LCBVU0EiZiJkChQKEglzGJcr_FSEiBE18VqzfuX-8BIUChIJcxiXK_xUhIgRNfFas37l_vAaFAoSCVmiD_INxYWIEZOWgKOwZROpGhQKEgn1l1FdFVWEiBHWewCs6JfuMSIKDXKVThMVnm9tyw
3947 Gulf Shores Pkwy,30.31026829999999,-87.68398529999999,"3947 Gulf Shores Pkwy, Gulf Shores, AL 36542, USA",premise,ChIJ977ov0QFmogR-SZNyYEeoqc
4925 University Dr NW,34.7375523,-86.65644569999999,"4925 University Dr NW, Huntsville, AL 35816, USA",street_address,ChIJc4jFofxrYogRpIsWACBDrcM
200 S Main St,31.3133056,-85.85341849999999,"200 S Main St, Enterprise, AL 36330, USA",premise,ChIJ1xPJeCFskogRPzJyRZn_KeM
801 Saraland Blvd S,30.80429149999999,-88.0730317,"801 Saraland Blvd S, Saraland, AL 36571, USA",premise,ChIJUWDKAblWmogRyBGqwkj8ntg
6207 Cottage Hill Rd b,30.63990209999999,-88.1851056,"6207 Cottage Hill Rd b, Mobile, AL 36609, USA",subpremise,ChIJFQz54jyzm4gRb7HVm-ijg_Q
1107 Monroe St SW,34.7207974,-86.5899478,"1107 Monroe St SW, Huntsville, AL 35801, USA",premise,ChIJPehvUq9sYogR638_GryQClk
210 Bexar Ave W,34.143155,-87.99052929999999,"210 Bexar Ave W, Hamilton, AL 35570, USA",subpremise,ChIJq9Q9xd2Xh4gRbYicKFeTOfY
2501 Cone Dr,33.6261943,-86.7797217,"2501 Cone Dr, Birmingham, AL 35217, USA",premise,ChIJ22YSgawFiYgRE9HpYHIfT6Q
3010 Allison-Bonnett Memorial Dr,33.4522414,-86.97738489999999,"3010 Allison-Bonnett Memorial Dr, Hueytown, AL 35023, USA",premise,ChIJ30Gcqi7hiIgRmqDeuNgqScE
112 Howell St,30.7611219,-88.0729757,"112 Howell St, Chickasaw, AL 36611, USA",premise,ChIJrcopgGtRmogREtLeyJs_SAk
30427 Co Rd 49,30.6676519,-87.7600958,"30427 Co Rd 49, Loxley, AL 36551, USA",premise,ChIJxbJfFz9vmogRhyFWaqTYMVQ
628 14th St SE,34.5784927,-86.9792145,"628 14th St SE, Decatur, AL 35601, USA",premise,ChIJb7A4EKGGYogRo3hLxmiCBys
325 Blake Bottom Rd NW,34.7804645,-86.6511652,"325 Blake Bottom Rd NW, Huntsville, AL 35806, USA",premise,ChIJEzlgxihqYogR8JwgjJtwVuw
1715 Hillyer Robinson Industrial Pkwy,33.6216293,-85.80939339999999,"1715 Hillyer Robinson Industrial Pkwy, Anniston, AL 36207, USA",premise,ChIJNdV_T3axi4gRt2lD2WfRb68
160 Cotton Creek Dr #100,30.2986651,-87.6814368,"160 Cotton Creek Dr #100, Gulf Shores, AL 36542, USA",subpremise,ChIJaRrEaj8FmogRe9jDx1rMWXQ
603 Forestdale Blvd,33.5444423,-86.8745905,"603 Forestdale Blvd, Birmingham, AL 35214, USA",subpremise,ChIJeYaR1A8diYgRHaMjLvyC5po
6525 Wilmer Georgetown Rd,30.8274693,-88.3563731,"6525 Wilmer Georgetown Rd, Wilmer, AL 36587, USA",street_address,ChIJJTTXYlqmm4gRhq9tdXRPTA4
1055 Lee Rd #424,32.6023602,-85.1662856,"1055 Lee Rd #424, Salem, AL 36874, USA",subpremise,EiYxMDU1IExlZSBSZCAjNDI0LCBTYWxlbSwgQUwgMzY4NzQsIFVTQSI6GjgKMRIvChQKEglRw36lFceMiBHw7b-w68ZcrBCfCCoUChIJZcPxKYzrjIgRFDPxyCocAVMSAzQyNA
287 Old Stage Rd,32.4891613,-86.9931866,"287 Old Stage Rd, Valley Grande, AL 36703, USA",premise,ChIJub7Su7oEj4gR3KYeo9LI3aA
355 The Bridge St #115,34.7147274,-86.67321199999999,"355 The Bridge St #115, Huntsville, AL 35806, USA",subpremise,EjEzNTUgVGhlIEJyaWRnZSBTdCAjMTE1LCBIdW50c3ZpbGxlLCBBTCAzNTgwNiwgVVNBIjoaOAoxEi8KFAoSCQWFZwO7bmKIEcMN9wflpznmEOMCKhQKEglbWUTlum5iiBEiaVbFYHwQbBIDMTE1
2225 Ruffner Rd,33.5684752,-86.6788548,"2225 Ruffner Rd, Birmingham, AL 35210, USA",premise,ChIJ1yX42OARiYgRseUV8hRh8PY
3764 Sullivan St,34.6800169,-86.75244479999999,"3764 Sullivan St, Madison, AL 35758, USA",premise,ChIJFcYLvXBlYogRENMXvK_M8lw
407 Tennessee St,34.6671578,-87.31120969999999,"407 Tennessee St, Courtland, AL 35618, USA",street_address,Eio0MDcgVGVubmVzc2VlIFN0LCBDb3VydGxhbmQsIEFMIDM1NjE4LCBVU0EiMRIvChQKEgkHdfMIULtiiBFlIzpc0cPGmhCXAyoUChIJIdWjl1e7YogRkb0CRzFT7j0
319 Broad St,34.0128088,-86.0026793,"319 Broad St, Gadsden, AL 35901, USA",subpremise,ChIJvYqgJaU-iogRIlJUyBvQV_M
28542 S Quarry Ln,30.3192698,-87.53793890000001,"28542 S Quarry Ln, Elberta, AL 36530, USA",street_address,ChIJTxOFbgCokIgRSOXcO6bUlmo
3238 Louisville St,31.7108604,-85.60931269999999,"3238 Louisville St, Clio, AL 36017, USA",street_address,ChIJY7Xy7ZiCjYgRo1jlLKlhCv4
900 Commons Dr,31.2540367,-85.4243382,"900 Commons Dr, Dothan, AL 36303, USA",premise,ChIJuYdfUhKSkogRhda2voEXBWM
Spruce Pine Lane,34.7819595,-86.502793,"Spruce Pine Ln, Huntsville, AL 35811, USA",route,EilTcHJ1Y2UgUGluZSBMbiwgSHVudHN2aWxsZSwgQUwgMzU4MTEsIFVTQSIuKiwKFAoSCa9DeajZFWKIEeUzaNGFAEajEhQKEgmNiaLNZ2tiiBFrVgTIiX4smg
1221 Middle Rd,32.6808744,-86.0697169,"1221 Middle Rd, Eclectic, AL 36024, USA",street_address,EicxMjIxIE1pZGRsZSBSZCwgRWNsZWN0aWMsIEFMIDM2MDI0LCBVU0EiMRIvChQKEgkH7CEUvxeMiBFh5WjdfX2H_xDFCSoUChIJO0U8RMcXjIgRy1jx63QJ0Do
3055 Dauphin St a,30.6886075,-88.11656,"3055 Dauphin St a, Mobile, AL 36606, USA",subpremise,EigzMDU1IERhdXBoaW4gU3QgYSwgTW9iaWxlLCBBTCAzNjYwNiwgVVNBIh0aGwoWChQKEgk_df1Ijk2aiBFuy_WdNtxBKxIBYQ
3802 Edwards St,33.4305703,-86.9513834,"3802 Edwards St, Brighton, AL 35020, USA",street_address,ChIJi--VwfHgiIgRu7pL5mku6Ps
4704 Cahaba River Rd,33.4321255,-86.737828,"4704 Cahaba River Rd, Vestavia Hills, AL 35243, USA",premise,ChIJCy3gioYXiYgRFIwz2vP2q9w
21 S Section St,30.5224716,-87.9028679,"21 S Section St, Fairhope, AL 36532, USA",subpremise,ChIJ7ZSMYIVAmogRv49H4snE9qs
25421 AL-181,30.5950478,-87.85282959999999,"25421 AL-181, Daphne, AL 36526, USA",premise,ChIJpSTPGAdqmogRoRqzn4rJ5CA
12985 US-431,34.3080386,-86.2966241,"12985 US-431, Guntersville, AL 35976, USA",premise,ChIJOycGUE34iYgR7c5QjeHFJLs
2021 Dahlke Dr,34.2054456,-86.8086805,"2021 Dahlke Dr, Cullman, AL 35058, USA",premise,ChIJ4SEKxbPOiYgRfQ3boRkVgb0
1280 Guntersville Rd,34.3347267,-86.4711738,"1280 Guntersville Rd, Arab, AL 35016, USA",premise,ChIJu1Fpl0_kiYgR10cbk-RDfe4
1749 Eva Rd NE,34.1985318,-86.83019329999999,"1749 Eva Rd NE, Cullman, AL 35055, USA",premise,ChIJ-bBerfnLiYgRzQeRLUSTm5Y
2311 West Blvd,32.3410759,-86.3691047,"2311 West Blvd, Montgomery, AL 36108, USA",premise,ChIJR7Lo3gSHjogRCBHd27lABSE
2001 Bay Minette Bypass,30.8525007,-87.7761062,"2001 Bay Minette Bypass, Bay Minette, AL 36507, USA",street_address,EjMyMDAxIEJheSBNaW5ldHRlIEJ5cGFzcywgQmF5IE1pbmV0dGUsIEFMIDM2NTA3LCBVU0EiMRIvChQKEgm5X_SfimGaiBEeRV5uwcKjLBDRDyoUChIJqWjC5vxhmogRuL4nFJ8lwek
106 Martin Luther King Jr Pkwy S,32.4477326,-85.01614029999999,"106 Martin Luther King Jr Pkwy S, Phenix City, AL 36869, USA",premise,ChIJ240OBvvNjIgR3TaIm_IQ8n4
1027 Douglas Ave,31.1223212,-87.0688445,"1027 Douglas Ave, Brewton, AL 36426, USA",premise,ChIJp6a0FfFFkIgR6ELWb_8sj0w
8960 AL-9,33.76772589999999,-85.6927677,"8960 AL-9, Anniston, AL 36207, USA",premise,ChIJIUzj8oJTiogR8YXWnt5eVHM
4822 Skyland E Blvd,33.1763253,-87.4720952,"4822 Skyland E Blvd, Tuscaloosa, AL 35405, USA",premise,ChIJaQBQxTqpiIgRHuYk38fzIRc
3431 Montgomery Hwy #2,31.2548559,-85.4318089,"3431 Montgomery Hwy #2, Dothan, AL 36303, USA",subpremise,ChIJrW2cDQySkogRF34Gx3BpqDU
824 US-278,33.9345722,-85.6259779,"824 US-278, Piedmont, AL 36272, USA",premise,ChIJy7GzT1xYiogRfmIY_F6nCgA
62732 US-231,33.9959345,-86.5779065,"62732 US-231, Cleveland, AL 35049, USA",premise,ChIJE1afCh-WiYgRVd303FF1fGQ
8097 AL-59 b,30.3420794,-87.68396109999999,"8097 AL-59 b, Foley, AL 36535, USA",subpremise,EiI4MDk3IEFMLTU5IGIsIEZvbGV5LCBBTCAzNjUzNSwgVVNBIh0aGwoWChQKEgkNHCRr6Q-aiBGsxbfBjCmXQxIBYg
210 Sanders St,34.8054952,-86.977481,"210 Sanders St, Athens, AL 35611, USA",premise,ChIJd1xvf16LYogRxk9aK2hg9zg
32 25th Ave NW,33.650672,-86.685046,"32 25th Ave NW, Center Point, AL 35215, USA",street_address,ChIJEbsmFsYOiYgRlX6_kJyqWIQ
5006 Pinnacle Sq Ste. 104,33.6081227,-86.6389523,"5006 Pinnacle Sq Ste. 104, Birmingham, AL 35235, USA",subpremise,ChIJpezZrbcNiYgRMrzGxUukuCc
300 Hwy 78 E Ste 438,33.8518338,-87.2717845,"300 Hwy 78 E Ste 438, Jasper, AL 35501, USA",subpremise,ChIJQxP4dTJhiIgR47ikqRAfnuo
1328 3rd Ave W,33.5054047,-86.859606,"1328 3rd Ave W, Birmingham, AL 35208, USA",premise,ChIJfVI5fjQciYgRkGL0j4h32lk
4710 University Dr NW l 02,34.7369373,-86.64716589999999,"4710 University Dr NW l 02, Huntsville, AL 35816, USA",subpremise,EjU0NzEwIFVuaXZlcnNpdHkgRHIgTlcgbCAwMiwgSHVudHN2aWxsZSwgQUwgMzU4MTYsIFVTQSIgGh4KFgoUChIJb5ahlvFrYogR5-M_38ouyr4SBGwgMDI
2576 Berryhill Rd,32.3605418,-86.1599753,"2576 Berryhill Rd, Montgomery, AL 36117, USA",premise,ChIJMUFPB2wsjIgRR6m4qL5ZgdQ
36301,31.1348407,-85.39627689999999,"Dothan, AL 36301, USA",postal_code,ChIJjVg4ZgTtkogRGLWwz4-ACwM
3120 26th St N,33.553425,-86.8190999,"3120 26th St N, Birmingham, AL 35207, USA",premise,ChIJkVomjGAbiYgRQ2-D2qkYH3w
1500 7th St N,32.8507078,-86.6339371,"1500 7th St N, Clanton, AL 35045, USA",premise,ChIJhxNv_SbGjogR6qk5juWjS6c
1503 College Ave,31.52600979999999,-87.8941674,"1503 College Ave, Jackson, AL 36545, USA",subpremise,ChIJFabGVNPLmogRXmKG7Mbn3Og
1036 US Hwy 72 E,34.7844077,-86.9544714,"1036 US Hwy 72 E, Athens, AL 35611, USA",premise,ChIJb7t35wiLYogRA5uT1TB9q8g
1032 Grand Ave SW,34.43356449999999,-85.7325087,"1032 Grand Ave SW, Fort Payne, AL 35967, USA",street_address,ChIJMfqFkHh4iogR91rPNLKaPaI
2800 Cahaba Village Pl,33.46156940000001,-86.75483109999999,"2800 Cahaba Village Pl, Mountain Brook, AL 35243, USA",street_address,ChIJIX5rhSYZiYgReHb3bOCWHHg
1435 Westgate Pkwy,31.2567974,-85.43425289999999,"1435 Westgate Pkwy, Dothan, AL 36303, USA",premise,ChIJb9NEewmSkogRfOl29e1BdSY
3500 Michael Ann Ave,34.02057840000001,-86.0598859,"3500 Michael Ann Ave, Gadsden, AL 35904, USA",premise,ChIJg8dLWIw8iogRTeqt8bZ4zls
2402 E 2nd St,34.7590718,-87.64648629999999,"2402 E 2nd St, Muscle Shoals, AL 35661, USA",street_address,EisyNDAyIEUgMm5kIFN0LCBNdXNjbGUgU2hvYWxzLCBBTCAzNTY2MSwgVVNBIjESLwoUChIJ98pktzFJfYgRIKzsi0tRnYgQ4hIqFAoSCXl1eoJmS32IEZlC8vb6y_ST
1001 3rd St,33.2173614,-87.5688735,"1001 3rd St, Northport, AL 35476, USA",premise,ChIJw0OQTsMChogRsDougLUngXg
127 East St N,33.4374415,-86.10241400000001,"127 East St N, Talladega, AL 35160, USA",premise,ChIJUyO3Fc_ci4gRACmhVFF4TS0
3503 Memorial Pkwy NW,34.7714047,-86.5877798,"3503 Memorial Pkwy NW, Huntsville, AL 35810, USA",premise,ChIJ8XXcM9ZqYogRo_R_hf_EECA
331 Cox Creek Pkwy,34.8374667,-87.63287609999999,"331 Cox Creek Pkwy, Florence, AL 35630, USA",premise,ChIJyzZ7JeJJfYgRL2FlMHj7_Pg
300 Hwy 78 E,33.8523916,-87.2716256,"300 Hwy 78 E, Jasper, AL 35501, USA",subpremise,ChIJ1STPiS1hiIgRpGCFv2w57Ag
1803 Stadium Dr,32.4973311,-85.01715449999999,"1803 Stadium Dr, Phenix City, AL 36867, USA",premise,ChIJmbabxiXMjIgRp2Qfniv5fa0
500 Colonial Promenade Pkwy,33.2347909,-86.8042416,"500 Colonial Promenade Pkwy, Alabaster, AL 35007, USA",premise,ChIJl5nagewliYgRdHzFhm6BynU
132 S Mulberry Ave,32.0890179,-88.2209292,"132 S Mulberry Ave, Butler, AL 36904, USA",premise,ChIJGTJLu8bjhIgRy0t4JINh_5w
949 Fairhope Ave,30.5240569,-87.8830375,"949 Fairhope Ave, Fairhope, AL 36532, USA",premise,ChIJiYOIvm9AmogRiNtZNcp15zI
1794 E Main St,32.4600856,-86.4219524,"1794 E Main St, Prattville, AL 36066, USA",street_address,ChIJP16MuYuPjogRLUcM_2QhbHE
1200 Broad St,32.4693551,-85.00030319999999,"1200 Broad St, Phenix City, AL 36867, USA",premise,ChIJYwOy-LjNjIgRo8kCGVLey_I
2001 Park Pl,33.5195028,-86.8098072,"2001 Park Pl, Birmingham, AL 35203, USA",street_address,ChIJCQjPqrMbiYgRy5kVKX2kf8I
1442 Montgomery Hwy,33.4204697,-86.80029329999999,"1442 Montgomery Hwy, Vestavia Hills, AL 35216, USA",premise,ChIJ_XjExeoYiYgRpdjY1rxSvtU
4833 Sparkman Dr NW,34.7574942,-86.6367342,"4833 Sparkman Dr NW, Huntsville, AL 35810, USA",premise,ChIJY3wobrlrYogROai_tfPpKk0
16310 Hampstead Ct,30.4623243,-87.85756239999999,"16310 Hampstead Ct, Fairhope, AL 36532, USA",street_address,ChIJ31YPHSs-mogR0s5_TfWfDXo
5668 2nd St,30.8562501,-88.05176829999999,"5668 2nd St, Satsuma, AL 36572, USA",street_address,ChIJpW3txEpWmogRZ8oRDCU4cOY
402 Lee St NE,34.606066,-86.9832011,"402 Lee St NE, Decatur, AL 35601, USA",premise,ChIJeSahbdWFYogRehJmg_kOdN8
340 Blount Ave,34.3605347,-86.2924626,"340 Blount Ave, Guntersville, AL 35976, USA",subpremise,ChIJq6paetT4iYgRA4Qr3Kn-GNI
Alabama 239,31.8862806,-85.4846185,"AL-239, Clayton, AL, USA",route,EhhBTC0yMzksIENsYXl0b24sIEFMLCBVU0EiLiosChQKEgmBCl1nRgqNiBFHBjVxkQYKHxIUChIJ2Q7rY4ZyjYgRslAAko5Ha0c
Bear Creek,34.2748197,-87.7005833,"Bear Creek, AL, USA",locality,ChIJ4WZvvyzph4gRexlBG0U5wtc
809 Daphne Ave Suite 102,30.6041563,-87.90158509999999,"809 Daphne Ave Suite 102, Daphne, AL 36526, USA",subpremise,ChIJq6pOM9ZDmogRcAgmD6yrf6Q
1 Chase Corporate Dr # 400,33.3714235,-86.8017379,"1 Chase Corporate Dr # 400, Birmingham, AL 35244, USA",subpremise,ChIJoZAwg0AiiYgR3eLzRXdTc10
1520 Clarence E Chesnut Jr Bypass,34.1608828,-85.7034876,"1520 Clarence E Chesnut Jr Bypass, Centre, AL 35960, USA",subpremise,ChIJKRlnO6JmiogRSLwSdwrOqDE
20210 AL-59 #2,30.5192282,-87.7077298,"20210 AL-59 #2, Summerdale, AL 36580, USA",subpremise,ChIJ37DN-E9tmogRc4LR6Nz0nMo
114 N Marion St,34.8037978,-86.97062919999999,"114 N Marion St, Athens, AL 35611, USA",premise,ChIJtWGFkUKLYogR5kOToMpXqkA
6983 Wall Triana Hwy # Z,34.7889197,-86.74876929999999,"6983 Wall Triana Hwy # Z, Madison, AL 35757, USA",subpremise,ChIJ9-3urNtnYogRqe4MsEMnHBo
2131 Data Office Dr,33.3768747,-86.79859719999999,"2131 Data Office Dr, Hoover, AL 35244, USA",subpremise,ChIJN_OORWoiiYgRZQTdwwI5vlk
5031 Cottage Hill Rd,30.6479711,-88.15886429999999,"5031 Cottage Hill Rd, Mobile, AL 36609, USA",street_address,ChIJyTaHUNdMmogRviDL28viLLs
2005 College Ave,31.5015849,-87.89913870000001,"2005 College Ave, Jackson, AL 36545, USA",premise,ChIJF5YGCnTJmogRaOc9rJwpAS8
3275 Allison-Bonnett Memorial Dr,33.4548925,-87.0075094,"3275 Allison-Bonnett Memorial Dr, Bessemer, AL 35023, USA",premise,ChIJD3zdJ-TmiIgRi2Kzffz5ayk
1124 Main St,32.7044066,-87.5933064,"1124 Main St, Greensboro, AL 36744, USA",premise,ChIJv7mlOs_0hYgR97w28Sfn0iE
2967 Ross Clark Cir,31.22044499999999,-85.4329546,"2967 Ross Clark Cir, Dothan, AL 36301, USA",premise,ChIJEXnM8oOSkogRT4KLu5Fv264
1208 Forestdale Square,33.557959,-86.89238979999999,"1208 Forestdale Square, Birmingham, AL 35214, USA",subpremise,ChIJ4RXxNF0diYgRT1AOfD5zW3U
"Regus - Mobile, RSA Battle House Tower",30.6932688,-88.04003159999999,"11 N Water St 10th Floor, Mobile, AL 36602, USA",real_estate_agency,ChIJ1x1Nv9lPmogRn2PklH-07y0
401 Adams Ave,32.3756487,-86.3030457,"401 Adams Ave, Montgomery, AL 36104, USA",premise,ChIJUbNE4nOBjogRs4oOf9kAyBo
203 Eastside Square Suite A,34.7308623,-86.5846724,"203 Eastside Square Suite A, Huntsville, AL 35801, USA",subpremise,ChIJJ1nNFlRrYogR6nvfO_BG2BQ
119 E College St,31.3151486,-85.85336339999999,"119 E College St, Enterprise, AL 36330, USA",premise,ChIJSfMzWiFskogRS43Civ1XIOk
3125 Independence Dr,33.4746967,-86.78648430000001,"3125 Independence Dr, Homewood, AL 35209, USA",premise,ChIJlzL-UXcZiYgRivlO-QY3eeA
4121 Carmichael Rd #304,32.3578397,-86.2418007,"4121 Carmichael Rd #304, Montgomery, AL 36106, USA",subpremise,EjI0MTIxIENhcm1pY2hhZWwgUmQgIzMwNCwgTW9udGdvbWVyeSwgQUwgMzYxMDYsIFVTQSIfGh0KFgoUChIJ5ZNVTm8qjIgR-A2YJ4_KZ44SAzMwNA
3809 Sullivan St,34.6811156,-86.7506729,"3809 Sullivan St, Madison, AL 35758, USA",premise,ChIJ94INHXplYogRunR4by6WTx0
129 Main St W,34.4438542,-86.9345723,"129 Main St W, Hartselle, AL 35640, USA",premise,ChIJfZfxNfIqiIgRw2S-ZuMew8A
1900 11th Ave,34.2538363,-87.6047432,"1900 11th Ave, Haleyville, AL 35565, USA",premise,ChIJKaEhPJrjh4gR9iCrj-buOwc
257 St Anthony St,30.6940894,-88.0457967,"257 St Anthony St, Mobile, AL 36603, USA",premise,ChIJybwLhNZPmogRHqVczb8WC7M
445 Moulton St E,34.6035168,-86.9806102,"445 Moulton St E, Decatur, AL 35601, USA",premise,ChIJ6bo8cICGYogR7LSQHUSaleQ
2081 Columbiana Rd #17,33.4354669,-86.8097477,"2081 Columbiana Rd #17, Vestavia Hills, AL 35216, USA",subpremise,EjUyMDgxIENvbHVtYmlhbmEgUmQgIzE3LCBWZXN0YXZpYSBIaWxscywgQUwgMzUyMTYsIFVTQSIeGhwKFgoUChIJpUXQNdoYiYgRDU9psV7R5pgSAjE3
3995 Cottage Hill Rd,30.6523705,-88.1427718,"3995 Cottage Hill Rd, Mobile, AL 36609, USA",premise,ChIJ0fNlDOJMmogRPR9c0fxxT6k
7380 Zeigler Cir S,30.7025758,-88.2144635,"7380 Zeigler Cir S, Mobile, AL 36608, USA",premise,ChIJp7kUAIetm4gR94P3ZAb9s5U
5950 Carmichael Pl # 210,32.3615383,-86.20328579999999,"5950 Carmichael Pl # 210, Montgomery, AL 36117, USA",subpremise,ChIJE-9mgLkrjIgRTZe_f1eU0h0
450 N Cedar St,30.4095674,-87.6905852,"450 N Cedar St, Foley, AL 36535, USA",premise,ChIJAzi3KQQOmogRfS0QH7PZy9c
1630 Powder Plant Rd,33.3494256,-87.0151875,"1630 Powder Plant Rd, Bessemer, AL 35022, USA",premise,ChIJ8_PCAlHciIgR6tzawKhEabk
2815 Forbes Dr,32.4243203,-86.28796129999999,"2815 Forbes Dr, Montgomery, AL 36110, USA",premise,ChIJj3OSlk-CjogR6rfY_5UTID0
241 8th Ave NE,34.3292769,-86.4939622,"241 8th Ave NE, Arab, AL 35016, USA",premise,ChIJTavFbSzkiYgRQ1IMVFw8KNo
1870 Chace Dr,33.3700923,-86.8016545,"1870 Chace Dr, Birmingham, AL 35244, USA",premise,ChIJDwCNpEAiiYgRrYxrjN-uWv0
913 Rucker Blvd,31.32425009999999,-85.8270057,"913 Rucker Blvd, Enterprise, AL 36330, USA",premise,ChIJ-6hXIvNukogRLXjBcHjdt8k
Airport Road South,33.8444658,-87.27000389999999,"Airport Rd S, Jasper, AL 35501, USA",route,EiNBaXJwb3J0IFJkIFMsIEphc3BlciwgQUwgMzU1MDEsIFVTQSIuKiwKFAoSCTuBoV8lYYiIEamoJFl1l1DtEhQKEgkRhcUgdGGIiBEcfycBKwM77A
2477 Valleydale Rd suite c-2e,33.37413119999999,-86.75580099999999,"2477 Valleydale Rd suite c-2e, Birmingham, AL 35244, USA",subpremise,ChIJl6QMpLgiiYgRyDahlQQSyr4
1837 Commons N Dr,33.2611702,-87.5104374,"1837 Commons N Dr, Tuscaloosa, AL 35406, USA",premise,ChIJg_ig5bmniIgR4eTGxZxPoZ0
1115 Leighton Ave,33.6590072,-85.82472330000002,"1115 Leighton Ave, Anniston, AL 36207, USA",premise,ChIJ-WWlncCzi4gRmowWjJNWfJw
430 Fieldstown Rd #104,33.652297,-86.8179131,"430 Fieldstown Rd #104, Gardendale, AL 35071, USA",subpremise,ChIJVVVFJwkEiYgRpTd7sLJyhi8
2828 Hwy 31 S,34.552935,-86.97225859999999,"2828 Hwy 31 S, Decatur, AL 35603, USA",premise,ChIJ9-T-Hk6BYogRezC8nbgxBzE
311 S 4th St,34.0092199,-86.00597479999999,"311 S 4th St, Gadsden, AL 35901, USA",premise,ChIJXc1kP68-iogRJh1s6OQaEMw
420 Lowell Dr SE,34.7215448,-86.5753227,"420 Lowell Dr SE, Huntsville, AL 35801, USA",premise,ChIJU5T5pVYTYogR_6LndT7guoM
600 S 3rd St,34.0044667,-86.0034907,"600 S 3rd St, Gadsden, AL 35901, USA",premise,ChIJX66c3q0-iogRJ8RvgFIURH8
2105 3rd Ave N,33.5168715,-86.805009,"2105 3rd Ave N, Birmingham, AL 35203, USA",subpremise,ChIJu3TK8ZYbiYgRz5seDk3wCGQ
972 Montclair Rd #100,33.5187251,-86.74199,"972 Montclair Rd #100, Birmingham, AL 35213, USA",subpremise,EjA5NzIgTW9udGNsYWlyIFJkICMxMDAsIEJpcm1pbmdoYW0sIEFMIDM1MjEzLCBVU0EiHxodChYKFAoSCbfPOvl3GomIESoA8tE__DGgEgMxMDA
209 Winton M Blount Loop,32.3804291,-86.17254679999999,"209 Winton M Blount Loop, Montgomery, AL 361173507, USA",subpremise,ChIJDWSV_wYsjIgR4xNzjt-lRA4
2024 Chestnut St,32.3665938,-86.2821529,"2024 Chestnut St, Montgomery, AL 36106, USA",subpremise,ChIJfydMK7yBjogRDRj_C-HG3rc
2229 Cahaba Valley Dr,33.4157933,-86.671701,"2229 Cahaba Valley Dr, Birmingham, AL 35242, USA",premise,ChIJYQpSrhIWiYgRpFEgr-wHPV4
513 Brookwood Blvd #401,33.4656885,-86.77672319999999,"513 Brookwood Blvd #401, Birmingham, AL 35209, USA",subpremise,ChIJ6Q2TzJgZiYgRfP22t_cwQUg
250 Chateau Dr SW,34.693711,-86.5734305,"250 Chateau Dr SW, Huntsville, AL 35801, USA",premise,ChIJEX_5LTATYogR6o9VneNHpZc
406 Woodward Ave,34.75619950000001,-87.6679379,"406 Woodward Ave, Muscle Shoals, AL 35661, USA",premise,ChIJ-W2H9c1IfYgRj4Tk5FQUIuw
207 Dogwood Cir,33.9708543,-86.0157231,"207 Dogwood Cir, Gadsden, AL 35901, USA",premise,ChIJX6SQPtk7iogRzDWB6iqWKxY
5295 Preserve Pkwy #280,33.3560865,-86.8461943,"5295 Preserve Pkwy #280, Hoover, AL 35244, USA",subpremise,Ei41Mjk1IFByZXNlcnZlIFBrd3kgIzI4MCwgSG9vdmVyLCBBTCAzNTI0NCwgVVNBIh8aHQoWChQKEgmlJm0gpSGJiBGFCODrjaXSDxIDMjgw
29 Medical Center Ln a,34.3655691,-86.4231578,"29 Medical Center Ln a, Guntersville, AL 35976, USA",subpremise,EjMyOSBNZWRpY2FsIENlbnRlciBMbiBhLCBHdW50ZXJzdmlsbGUsIEFMIDM1OTc2LCBVU0EiHRobChYKFAoSCfNBITCq5ImIEZAeHYvSjEtXEgFh
1901 Hand Ave,30.9026862,-87.7839813,"1901 Hand Ave, Bay Minette, AL 36507, USA",premise,ChIJa4UO_iKKmogRDkVwgIDhz3c
200 Clinton Ave W,34.7306898,-86.588309,"200 Clinton Ave W, Huntsville, AL 35801, USA",premise,ChIJe62WIVdrYogREbRo9oednN8
3095 AL-14,32.5077363,-86.38378569999999,"3095 AL-14, Millbrook, AL 36054, USA",premise,ChIJEZHU-92ajogRmaGl-ROFTqE
2149 Taylor Rd,32.3477506,-86.17619959999999,"2149 Taylor Rd, Montgomery, AL 36117, USA",subpremise,ChIJMeLKlYArjIgRtoFhrZPkL30
2801 AL-150,33.3655054,-86.8242353,"2801 AL-150, Hoover, AL 35244, USA",street_address,ChIJf2ChZoghiYgRAsKqA-o1YUw
1216 Memorial Pkwy NW,34.7409968,-86.6005086,"1216 Memorial Pkwy NW, Huntsville, AL 35801, USA",street_address,EjAxMjE2IE1lbW9yaWFsIFBrd3kgTlcsIEh1bnRzdmlsbGUsIEFMIDM1ODAxLCBVU0EiMRIvChQKEgndOkCEQmtiiBHNcl49AllnthDACSoUChIJAU56QMpqYogRr-CLHySdMRs
913 Plantation Blvd,30.5264072,-87.8838565,"913 Plantation Blvd, Fairhope, AL 36532, USA",premise,ChIJac86Zm9AmogRGRrz5Ax4NAQ
4601 Troy Hwy,32.3102192,-86.21783649999999,"4601 Troy Hwy, Montgomery, AL 36116, USA",premise,ChIJGXYQktcqjIgRN_mq2BFKsb8
Haleyville,34.226488,-87.6214133,"Haleyville, AL 35565, USA",locality,ChIJablIXynhh4gRWiO9MsOrGFI
519 Energy Center Blvd,33.23969220000001,-87.5545561,"519 Energy Center Blvd, Northport, AL 35473, USA",street_address,ChIJ7ZIk-UsdhogRyETGjIaREqQ
3309 Bob Wallace Ave SW,34.7115657,-86.6119318,"3309 Bob Wallace Ave SW, Huntsville, AL 35805, USA",premise,ChIJQWrrbI5sYogRIjEBIoaZgLc
215 Walker Springs Rd,31.5592149,-87.87429929999999,"215 Walker Springs Rd, Jackson, AL 36545, USA",premise,ChIJE5x_VGfKmogR_i_Mqg3KidY
183 E University Dr,32.5796949,-85.4931952,"183 E University Dr, Auburn, AL 36832, USA",premise,ChIJ63zZQbvzjIgRWsebL746vCA
619 19th St S,33.5059232,-86.8019175,"619 19th St S, Birmingham, AL 35294, USA",street_address,ChIJ5yXh1cEbiYgRdL_mbCwz_00
805C N McKenzie St,30.4146925,-87.68418609999999,"805C N McKenzie St, Foley, AL 36535, USA",subpremise,ChIJn7vn3AkOmogREtktnI-1UB4
1418 Old Railroad Bed Rd,34.7719723,-86.7870896,"1418 Old Railroad Bed Rd, Harvest, AL 35749, USA",premise,ChIJCcVtIPxmYogRVLJBUNEa9qE
2101 5th St S,32.437464,-85.0253577,"2101 5th St S, Phenix City, AL 36869, USA",premise,ChIJnX6WsP_RjIgR9YoeOzFmI_w
2061 Kentucky Ave,33.446599,-86.7868539,"2061 Kentucky Ave, Vestavia Hills, AL 35216, USA",premise,ChIJ3cCb4gMZiYgRFt5f1Inkgp4
600 Governors Dr SW,34.7209456,-86.5881654,"600 Governors Dr SW, Huntsville, AL 35801, USA",premise,ChIJNQGt1KhsYogRwHb1WYxTJUw
3342 AL-134,31.3113547,-85.51457719999999,"3342 AL-134, Midland City, AL 36350, USA",premise,ChIJM2DJ9tGOkogRDOSvD43C1Dk
5604 Judson Cir,30.696554,-88.1715285,"5604 Judson Cir, Mobile, AL 36608, USA",premise,ChIJoQCJS6qym4gRYDIQdz6noLI
390 W 6th St,32.4675509,-86.48182550000001,"390 W 6th St, Prattville, AL 36067, USA",premise,ChIJI8e0HRWOjogRDxzIELPd6gU
2005 32nd St,33.2382102,-87.5779527,"2005 32nd St, Northport, AL 35476, USA",subpremise,ChIJ4ZM9YCodhogR7d7FZ4TJF4M
2810 College Ave,31.538655,-87.8862329,"2810 College Ave, Jackson, AL 36545, USA",premise,ChIJh48HGjfKmogRGHN_HOHXizE
5175 Carmichael Rd,32.3613663,-86.21729859999999,"5175 Carmichael Rd, Montgomery, AL 36106, USA",premise,ChIJaeIWmUwqjIgRZ_Gk_ENM5wA
5450 Coca Cola Rd,30.5857569,-88.1677095,"5450 Coca Cola Rd, Mobile, AL 36619, USA",premise,ChIJB1nMy0pLmogRLS0KdhO3W4g
2152 Springfield Loop W,33.4247165,-86.69418879999999,"2152 Springfield Loop W, Birmingham, AL 35242, USA",street_address,EjIyMTUyIFNwcmluZ2ZpZWxkIExvb3AgVywgQmlybWluZ2hhbSwgQUwgMzUyNDIsIFVTQSIxEi8KFAoSCYEZ9KtPFomIEXvDSoybUsYcEOgQKhQKEgmBGfSrTxaJiBEVibtt9H4pMw
508 State St,32.6988849,-87.5860809,"508 State St, Greensboro, AL 36744, USA",subpremise,ChIJsZQqsdP0hYgRAgqbatY1sEI
4901 Corporate Dr NW Ste C,34.7326393,-86.6578004,"H, 4901 Corporate Dr NW Ste C, Huntsville, AL 35805, USA",subpremise,ChIJwS8ek_5rYogR70sujeQMXuo
Alabama 162,32.0562124,-87.4618693,"AL-162, Pine Hill, AL 36769, USA",route,EiBBTC0xNjIsIFBpbmUgSGlsbCwgQUwgMzY3NjksIFVTQSIuKiwKFAoSCam8UE9liY-IEeXq4gHvNW_tEhQKEgln4m_y-GCFiBEUzEyFYM5D5A
3701 E Willow St,34.7005379,-85.9885828,"3701 E Willow St, Scottsboro, AL 35768, USA",premise,ChIJ-1OE-mbpYYgRKvNLeqTrgp4
79 Commerce St suite e,32.3784007,-86.31101199999999,"79 Commerce St suite e, Montgomery, AL 36104, USA",subpremise,ChIJAQBQ526BjogRdGCCYNhtA1Q
105 Corporate Woods Dr,33.1888679,-86.7908473,"105 Corporate Woods Dr, Alabaster, AL 35007, USA",street_address,EjAxMDUgQ29ycG9yYXRlIFdvb2RzIERyLCBBbGFiYXN0ZXIsIEFMIDM1MDA3LCBVU0EiMBIuChQKEgl5y0VzDi-JiBGY-_ws9VcdAxBpKhQKEgm79vvRci-JiBEPvGrE_LVzHg
22 Inverness Center Pkwy,33.4225732,-86.7074268,"22 Inverness Center Pkwy, Birmingham, AL 35242, USA",premise,ChIJ0TpitLYXiYgRv2uqxCUINlA
114 Court Square,31.435296,-86.95427099999999,"114 Court Square, Evergreen, AL 36401, USA",street_address,EioxMTQgQ291cnQgU3F1YXJlLCBFdmVyZ3JlZW4sIEFMIDM2NDAxLCBVU0EiMBIuChQKEgnz36z9vC2QiBHFVpEJY-shqxByKhQKEgkPZnIdvS2QiBFZn9PC7YAjvQ
191 W Valley Ave,33.4645623,-86.8367924,"191 W Valley Ave, Homewood, AL 35209, USA",premise,ChIJPf19TcceiYgRGi6HP4d9Hl4
1017 12th Pl,32.4699942,-85.0075699,"1017 12th Pl, Phenix City, AL 36867, USA",premise,ChIJ5a7QfsbNjIgRH656u2wd2mU
3414 Governors Dr SW #515,34.72136739999999,-86.612454,"3414 Governors Dr SW #515, Huntsville, AL 35805, USA",subpremise,ChIJbxSKnIRsYogRjlP6JyfxgsE
270 AL-165,32.3846374,-85.03531670000001,"270 AL-165, Phenix City, AL 36869, USA",premise,ChIJDwylQHDRjIgRrDFXLc3k6IQ
100 S Main St,34.7322008,-87.7038003,"100 S Main St, Tuscumbia, AL 35674, USA",subpremise,ChIJEYhoE_NFfYgRDP260HTNCk4
441 W Willow St,34.6736142,-86.0422907,"441 W Willow St, Scottsboro, AL 35768, USA",premise,ChIJ0Zaq0eTuYYgR1EI9xHcmQd0
4666 US-231,32.5090732,-86.2123293,"4666 US-231, Wetumpka, AL 36092, USA",subpremise,ChIJ7zsEdEwmjIgRhLNbxUFH3X8
4900 Old Greensboro Rd,33.1642066,-87.54798459999999,"4900 Old Greensboro Rd, Tuscaloosa, AL 35405, USA",premise,ChIJNatboQ0ChogRZnRRKRL_CtM
69 County Rd 222,34.1309335,-86.8562784,"69 County Rd 222, Good Hope, AL 35055, USA",street_address,ChIJVeY4uWbKiYgRKP38v8BDLTc
3147 Green Valley Rd,33.4597837,-86.7327967,"3147 Green Valley Rd, Vestavia Hills, AL 35243, USA",subpremise,ChIJ-9QTNWYXiYgRejntZeGDWtQ
4060 AL-14,32.458925,-86.379539,"4060 AL-14, Millbrook, AL 36054, USA",street_address,ChIJM5NORx6FjogR28RhZ8MUhLY
3025 AL-5,32.2769502,-87.39144139999999,"3025 AL-5, Safford, AL 36773, USA",premise,ChIJLXwX8yWDj4gRlYkqJkq7ddA
1812 Old Shell Rd d,30.6886113,-88.08183869999999,"1812 Old Shell Rd d, Mobile, AL 36607, USA",subpremise,EioxODEyIE9sZCBTaGVsbCBSZCBkLCBNb2JpbGUsIEFMIDM2NjA3LCBVU0EiHRobChYKFAoSCXcwHRoFTpqIEXMnE8uVJv_NEgFk
21471 AL-71,34.7677435,-85.70434709999999,"21471 AL-71, Flat Rock, AL 35966, USA",premise,ChIJW7YdY-rJYYgRTPSA3u8l4I4
100 Church St SW,34.72888349999999,-86.58804049999999,"100 Church St SW, Huntsville, AL 35801, USA",subpremise,ChIJ5cOprFdrYogRdFu_GQmU_LU
504 W Grove Ave,34.7345697,-87.66970800000001,"504 W Grove Ave, Muscle Shoals, AL 35661, USA",premise,ChIJ6W5ukDxPfYgRwv15rIqbF2I
3751 US-280,32.9271347,-85.9637474,"3751 US-280, Alexander City, AL 35010, USA",street_address,EiozNzUxIFVTLTI4MCwgQWxleGFuZGVyIENpdHksIEFMIDM1MDEwLCBVU0EiMRIvChQKEglf5lpWfAuMiBGRzJNf0N8aZRCnHSoUChIJT10QWB6WjIgRG2alFfRA0Kk
26056 AL-75,33.9138169,-86.508853,"26056 AL-75, Oneonta, AL 35121, USA",premise,ChIJ-ezwEfCZiYgRMnW5ZlsQQE4
550 Lee Rd 315,32.544297,-85.0413086,"550 Lee Rd 315, Smiths Station, AL 36877, USA",premise,ChIJQ028VUbJjIgRPFuurxpRkEM
1718 McFarland Blvd,33.2397664,-87.57444939999999,"1718 McFarland Blvd, Northport, AL 35476, USA",subpremise,ChIJzYga9CsdhogR_9j5uWwYzDs
695 Summit Pkwy,32.48236,-86.41696929999999,"695 Summit Pkwy, Prattville, AL 36066, USA",subpremise,ChIJn05XuFWFjogRYr525NFAwyQ
2803 Ross Clark Cir,31.2128931,-85.42969339999999,"2803 Ross Clark Cir, Dothan, AL 36301, USA",premise,ChIJ43KPVJqSkogRM3STqbH_ZY4
300 3rd Ave E,33.9473337,-86.4756439,"300 3rd Ave E, Oneonta, AL 35121, USA",premise,ChIJaR0ISuuQiYgRfwahklhUZCI
953 Parrish Ln,33.5848675,-86.66313610000002,"953 Parrish Ln, Birmingham, AL 35235, USA",premise,ChIJZeC2ZQgOiYgRar05Q_CbmgI
6200 Lou George Loop,33.3250777,-86.98569859999999,"6200 Lou George Loop, Bessemer, AL 35022, USA",premise,ChIJmeRY7hzciIgRJ1AW4DTzq-w
1414 6th Ave N,33.5157508,-86.8168938,"1414 6th Ave N, Birmingham, AL 35203, USA",premise,ChIJf77xrI4biYgR9oVTvjNbT0g
505 E Heritage Dr,30.6618833,-88.1360121,"505 E Heritage Dr, Mobile, AL 36609, USA",street_address,Eig1MDUgRSBIZXJpdGFnZSBEciwgTW9iaWxlLCBBTCAzNjYwOSwgVVNBIjESLwoUChIJ6S6XrgVNmogRzw5SJURjpqEQ-QMqFAoSCeEul64FTZqIEfo-BhIEVIeW
8921 Parkway E,33.5811825,-86.7099021,"8921 Parkway E, Birmingham, AL 35206, USA",premise,ChIJndsx6tAPiYgRLk4dRZmL1OQ
12901 Bailey Cove Rd SE,34.6236248,-86.53697439999999,"12901 Bailey Cove Rd SE, Huntsville, AL 35803, USA",premise,ChIJE-5f5ZwNYogRuLioOPgiqKk
1050 Dunsmore Dr,33.3427465,-86.58582779999999,"1050 Dunsmore Dr, Chelsea, AL 35043, USA",premise,ChIJN96cNnk_iYgR8NOsHi0E0jE
7000 Adventist Blvd NW,34.75296219999999,-86.6485379,"7000 Adventist Blvd NW, Huntsville, AL 35896, USA",street_address,ChIJrTcRWNxrYogRCPITywuIan4
2001 2nd Ave,33.830749,-87.27635269999999,"2001 2nd Ave, Jasper, AL 35501, USA",premise,ChIJUfFbhxZhiIgR1Anld5quHRE
19875 Thompson Hall Rd,30.5139897,-87.8612411,"19875 Thompson Hall Rd, Fairhope, AL 36532, USA",premise,ChIJ40jO5wZAmogRnRIAo9gsfQI
1520 Shug Jordan Pkwy,32.6227348,-85.50350449999999,"1520 Shug Jordan Pkwy, Auburn, AL 36832, USA",premise,ChIJgzGJk0bzjIgRVyAByOFU6RA
